$$SOE
2460721.500000000, A.D. 2025-Feb-15 00:00:00.0000, -2.960696427873166E+08, 2.311694924443015E+08, 7.918716030539794E+07,
2460728.500000000, A.D. 2025-Feb-22 00:00:00.0000, -3.030660733810886E+08, 2.226508216715358E+08, 8.113649058854708E+07,
2460735.500000000, A.D. 2025-Mar-01 00:00:00.0000, -3.098040865216062E+08, 2.139423227203403E+08, 8.301663991238433E+07,
2460742.500000000, A.D. 2025-Mar-08 00:00:00.0000, -3.162796299843358E+08, 2.050525879145159E+08, 8.482645896858472E+07,
2460749.500000000, A.D. 2025-Mar-15 00:00:00.0000, -3.224889190046073E+08, 1.959902518733342E+08, 8.656487125887740E+07,
2460756.500000000, A.D. 2025-Mar-22 00:00:00.0000, -3.284284348990142E+08, 1.867639834120142E+08, 8.823087240201479E+07,
2460763.500000000, A.D. 2025-Mar-29 00:00:00.0000, -3.340949221451309E+08, 1.773824755687491E+08, 8.982352908132608E+07,
2460770.500000000, A.D. 2025-Apr-05 00:00:00.0000, -3.394853836181885E+08, 1.678544368904983E+08, 9.134197786656344E+07,
2460777.500000000, A.D. 2025-Apr-12 00:00:00.0000, -3.445970759373757E+08, 1.581885840767619E+08, 9.278542410304858E+07,
2460784.500000000, A.D. 2025-Apr-19 00:00:00.0000, -3.494275051318465E+08, 1.483936350972062E+08, 9.415314082037434E+07,
2460791.500000000, A.D. 2025-Apr-26 00:00:00.0000, -3.539744223724951E+08, 1.384783025740110E+08, 9.544446762413874E+07,
2460798.500000000, A.D. 2025-May-03 00:00:00.0000, -3.582358196721755E+08, 1.284512874387498E+08, 9.665880956584878E+07,
2460805.500000000, A.D. 2025-May-10 00:00:00.0000, -3.622099255419684E+08, 1.183212728617572E+08, 9.779563599293481E+07,
2460812.500000000, A.D. 2025-May-17 00:00:00.0000, -3.658952005825229E+08, 1.080969184018129E+08, 9.885447937601620E+07,
2460819.500000000, A.D. 2025-May-24 00:00:00.0000, -3.692903328514344E+08, 9.778685431035978E+07, 9.983493409679660E+07,
2460826.500000000, A.D. 2025-May-31 00:00:00.0000, -3.723942326025406E+08, 8.739967628969121E+07, 1.007366551872196E+08,
2460833.500000000, A.D. 2025-Jun-07 00:00:00.0000, -3.752060268105972E+08, 7.694394189772311E+07, 1.015593571583364E+08,
2460840.500000000, A.D. 2025-Jun-14 00:00:00.0000, -3.777250558590659E+08, 6.642816791981983E+07, 1.023028130847948E+08,
2460847.500000000, A.D. 2025-Jun-21 00:00:00.0000, -3.799508711881172E+08, 5.586082542546648E+07, 1.029668535702987E+08,
2460854.500000000, A.D. 2025-Jun-28 00:00:00.0000, -3.818832307834839E+08, 4.525033426510279E+07, 1.035513654541665E+08,
2460861.500000000, A.D. 2025-Jul-05 00:00:00.0000, -3.835220940281190E+08, 3.460505915085269E+07, 1.040562905752744E+08,
2460868.500000000, A.D. 2025-Jul-12 00:00:00.0000, -3.848676171163502E+08, 2.393330650155545E+07, 1.044816246388958E+08,
2460875.500000000, A.D. 2025-Jul-19 00:00:00.0000, -3.859201488507403E+08, 1.324332146523002E+07, 1.048274161251254E+08,
2460882.500000000, A.D. 2025-Jul-26 00:00:00.0000, -3.866802266189863E+08, 2.543285051745616E+06, 1.050937652173982E+08,
2460889.500000000, A.D. 2025-Aug-02 00:00:00.0000, -3.871485724909521E+08, -8.158688613724530E+06, 1.052808227485592E+08,
2460896.500000000, A.D. 2025-Aug-09 00:00:00.0000, -3.873260894172122E+08, -1.885455494239865E+07, 1.053887891625967E+08,
2460903.500000000, A.D. 2025-Aug-16 00:00:00.0000, -3.872138574564947E+08, -2.953634151308694E+07, 1.054179134811920E+08,
2460910.500000000, A.D. 2025-Aug-23 00:00:00.0000, -3.868131297431031E+08, -4.019615067722675E+07, 1.053684922508433E+08,
2460917.500000000, A.D. 2025-Aug-30 00:00:00.0000, -3.861253278681479E+08, -5.082616143427865E+07, 1.052408684997133E+08,
2460924.500000000, A.D. 2025-Sep-06 00:00:00.0000, -3.851520380946195E+08, -6.141862958809562E+07, 1.050354309166885E+08,
2460931.500000000, A.D. 2025-Sep-13 00:00:00.0000, -3.838950100799646E+08, -7.196588867875990E+07, 1.047526132041212E+08,
2460938.500000000, A.D. 2025-Sep-20 00:00:00.0000, -3.823561548372582E+08, -8.246035334457166E+07, 1.043928931715993E+08,
2460945.500000000, A.D. 2025-Sep-27 00:00:00.0000, -3.805375408777010E+08, -9.289452201042944E+07, 1.039567917287477E+08,
2460952.500000000, A.D. 2025-Oct-04 00:00:00.0000, -3.784413905492631E+08, -1.032609783722795E+08, 1.034448720053968E+08,
2460959.500000000, A.D. 2025-Oct-11 00:00:00.0000, -3.760700769447654E+08, -1.135523926316665E+08, 1.028577385562002E+08,
2460966.500000000, A.D. 2025-Oct-18 00:00:00.0000, -3.734261210974936E+08, -1.237615227651805E+08, 1.021960366022022E+08,
2460973.500000000, A.D. 2025-Oct-25 00:00:00.0000, -3.705121893264017E+08, -1.338812158263732E+08, 1.014604512983627E+08,
2460980.500000000, A.D. 2025-Nov-01 00:00:00.0000, -3.673310906919926E+08, -1.439044092720886E+08, 1.006517070249997E+08,
2460987.500000000, A.D. 2025-Nov-08 00:00:00.0000, -3.638857745279176E+08, -1.538241323511742E+08, 9.977056669709389E+07,
2460994.500000000, A.D. 2025-Nov-15 00:00:00.0000, -3.601793278987986E+08, -1.636335076197321E+08, 9.881783107200597E+07,
2461001.500000000, A.D. 2025-Nov-22 00:00:00.0000, -3.562149725781159E+08, -1.733257523680417E+08, 9.779433803464444E+07,
2461008.500000000, A.D. 2025-Nov-29 00:00:00.0000, -3.519960616940411E+08, -1.828941788302918E+08, 9.670096196430686E+07,
2461015.500000000, A.D. 2025-Dec-06 00:00:00.0000, -3.475260783150663E+08, -1.923321933217654E+08, 9.553861337889379E+07,
2461022.500000000, A.D. 2025-Dec-13 00:00:00.0000, -3.428086355395008E+08, -2.016332976850205E+08, 9.430823854126912E+07,
2461029.500000000, A.D. 2025-Dec-20 00:00:00.0000, -3.378474745973643E+08, -2.107910920318782E+08, 9.301081879277222E+07,
2461036.500000000, A.D. 2025-Dec-27 00:00:00.0000, -3.326464620394675E+08, -2.197992761955798E+08, 9.164736992519027E+07,
2461043.500000000, A.D. 2026-Jan-03 00:00:00.0000, -3.272095874708167E+08, -2.286516505123983E+08, 9.021894167405090E+07,
2461050.500000000, A.D. 2026-Jan-10 00:00:00.0000, -3.215409617150379E+08, -2.373421166161947E+08, 8.872661726637976E+07,
2461057.500000000, A.D. 2026-Jan-17 00:00:00.0000, -3.156448151739807E+08, -2.458646783429113E+08, 8.717151299312444E+07,
2461064.500000000, A.D. 2026-Jan-24 00:00:00.0000, -3.095254963015801E+08, -2.542134427274251E+08, 8.555477780022302E+07,
2461071.500000000, A.D. 2026-Jan-31 00:00:00.0000, -3.031874701651390E+08, -2.623826211046467E+08, 8.387759289469880E+07,
2461078.500000000, A.D. 2026-Feb-07 00:00:00.0000, -2.966353170286469E+08, -2.703665303765061E+08, 8.214117135443495E+07,
2461085.500000000, A.D. 2026-Feb-14 00:00:00.0000, -2.898737307010130E+08, -2.781595944644469E+08, 8.034675771612023E+07,
2461092.500000000, A.D. 2026-Feb-21 00:00:00.0000, -2.829075162575117E+08, -2.857563453745641E+08, 7.849562755191404E+07,
2461099.500000000, A.D. 2026-Feb-28 00:00:00.0000, -2.757415882145880E+08, -2.931514227256817E+08, 7.658908722731097E+07,
2461106.500000000, A.D. 2026-Mar-07 00:00:00.0000, -2.683809712111270E+08, -3.003395736946530E+08, 7.462847386821347E+07,
2461113.500000000, A.D. 2026-Mar-14 00:00:00.0000, -2.608308004159917E+08, -3.073156557177141E+08, 7.261515509114838E+07,
2461120.500000000, A.D. 2026-Mar-21 00:00:00.0000, -2.530963198758740E+08, -3.140746390557832E+08, 7.055052856957832E+07,
2461127.500000000, A.D. 2026-Mar-28 00:00:00.0000, -2.451828808090840E+08, -3.206116081988513E+08, 6.843602170381168E+07,
2461134.500000000, A.D. 2026-Apr-04 00:00:00.0000, -2.370959404438053E+08, -3.269217630780892E+08, 6.627309136952442E+07,
2461141.500000000, A.D. 2026-Apr-11 00:00:00.0000, -2.288410611208963E+08, -3.330004204491535E+08, 6.406322368878648E+07,
2461148.500000000, A.D. 2026-Apr-18 00:00:00.0000, -2.204239094959980E+08, -3.388430154579958E+08, 6.180793380717170E+07,
2461155.500000000, A.D. 2026-Apr-25 00:00:00.0000, -2.118502557898715E+08, -3.444451033794531E+08, 5.950876567303838E+07,
2461162.500000000, A.D. 2026-May-02 00:00:00.0000, -2.031259730514367E+08, -3.498023615625685E+08, 5.716729181280494E+07,
2461169.500000000, A.D. 2026-May-09 00:00:00.0000, -1.942570363038504E+08, -3.549105916522352E+08, 5.478511308409332E+07,
2461176.500000000, A.D. 2026-May-16 00:00:00.0000, -1.852495211901474E+08, -3.597657219513943E+08, 5.236385838170600E+07,
2461183.500000000, A.D. 2026-May-23 00:00:00.0000, -1.761096020605425E+08, -3.643638089030761E+08, 4.990518437319796E+07,
2461190.500000000, A.D. 2026-May-30 00:00:00.0000, -1.668435515725517E+08, -3.687010373732244E+08, 4.741077547832610E+07,
2461197.500000000, A.D. 2026-Jun-06 00:00:00.0000, -1.574577421123472E+08, -3.727737230088127E+08, 4.488234385137497E+07,
2461204.500000000, A.D. 2026-Jun-13 00:00:00.0000, -1.479586453626418E+08, -3.765783164758074E+08, 4.232162904445937E+07,
2461211.500000000, A.D. 2026-Jun-20 00:00:00.0000, -1.383528305105368E+08, -3.801114066551737E+08, 3.973039763547216E+07,
2461218.500000000, A.D. 2026-Jun-27 00:00:00.0000, -1.286469627863444E+08, -3.833697231403236E+08, 3.711044294716461E+07,
2461225.500000000, A.D. 2026-Jul-04 00:00:00.0000, -1.188478023262946E+08, -3.863501388139527E+08, 3.446358479229645E+07,
2461232.500000000, A.D. 2026-Jul-11 00:00:00.0000, -1.089622030981438E+08, -3.890496726387768E+08, 3.179166920873462E+07,
2461239.500000000, A.D. 2026-Jul-18 00:00:00.0000, -9.899711178992128E+07, -3.914654926386627E+08, 2.909656817575803E+07,
2461246.500000000, A.D. 2026-Jul-25 00:00:00.0000, -8.895956663067473E+07, -3.935949190691236E+08, 2.638017930707432E+07,
2461253.500000000, A.D. 2026-Aug-01 00:00:00.0000, -7.885669608878385E+07, -3.954354278252511E+08, 2.364442550953060E+07,
2461260.500000000, A.D. 2026-Aug-08 00:00:00.0000, -6.869571722567193E+07, -3.969846541202854E+08, 2.089125458187653E+07,
2461267.500000000, A.D. 2026-Aug-15 00:00:00.0000, -5.848393328015211E+07, -3.982403959803048E+08, 1.812263874914941E+07,
2461274.500000000, A.D. 2026-Aug-22 00:00:00.0000, -4.822873123248114E+07, -3.992006163304572E+08, 1.534057429933050E+07,
2461281.500000000, A.D. 2026-Aug-29 00:00:00.0000, -3.793758162441537E+07, -3.998634450440407E+08, 1.254708141739288E+07,
2461288.500000000, A.D. 2026-Sep-05 00:00:00.0000, -2.761803848955974E+07, -4.002271838236523E+08, 9.744203784272581E+06,
$$EOE